[{"OBJECT_NAME":"OBJECT C","OBJECT_ID":"2022-023C","EPOCH":"2026-03-09T22:57:27.819936","MEAN_MOTION":15.18202357,"ECCENTRICITY":0.00963055,"INCLINATION":63.4862,"RA_OF_ASC_NODE":247.9876,"ARG_OF_PERICENTER":349.5574,"MEAN_ANOMALY":10.3536,"EPHEMERIS_TYPE":0,"CLASSIFICATION_TYPE":"U","NORAD_CAT_ID":51948,"ELEMENT_SET_NO":999,"REV_AT_EPOCH":22265,"BSTAR":0.00022353772,"MEAN_MOTION_DOT":4.943e-5,"MEAN_MOTION_DDOT":0},{"OBJECT_NAME":"STARLINK-32161","OBJECT_ID":"2024-150L","EPOCH":"2026-03-09T21:20:46.272480","MEAN_MOTION":15.30186437,"ECCENTRICITY":8.838e-5,"INCLINATION":53.1597,"RA_OF_ASC_NODE":305.9754,"ARG_OF_PERICENTER":91.833,"MEAN_ANOMALY":268.2772,"EPHEMERIS_TYPE":0,"CLASSIFICATION_TYPE":"U","NORAD_CAT_ID":60593,"ELEMENT_SET_NO":999,"REV_AT_EPOCH":8799,"BSTAR":5.8366414e-5,"MEAN_MOTION_DOT":1.369e-5,"MEAN_MOTION_DDOT":0}]
